NORAD_CAT_ID,OBJECT_NAME,OBJECT_TYPE,EPOCH,MEAN_MOTION,ECCENTRICITY,INCLINATION,RA_OF_ASC_NODE,ARG_OF_PERICENTER,MEAN_ANOMALY,BSTAR,MEAN_MOTION_DOT,MEAN_MOTION_DDOT,TLE_LINE0,TLE_LINE1,TLE_LINE2,SEMIMAJOR_AXIS,PERIOD,APOGEE,PERIGEE,DECAYED
53532.0,STARLINK-4483,PAYLOAD,2023-07-07 13:19:50,15.0884167,0.0001225,53.2174,136.1556,91.9721,268.1411,4.0802e-05,3.62e-06,0.0,0 STARLINK-4483,1 53532U 22101F   23188.55544655  .00000362  00000-0  40802-4 0  9994,2 53532  53.2174 136.1556 0001225  91.9721 268.1411 15.08841670 48801,6917.875,95.437,540.588,538.893,0.0
53532.0,STARLINK-4483,PAYLOAD,2023-07-07 19:41:23,15.08821107,0.0001529,53.2176,134.9677,109.104,251.0118,0.00017668,2.524e-05,0.0,0 STARLINK-4483,1 53532U 22101F   23188.82041348  .00002524  00000-0  17668-3 0  9990,2 53532  53.2176 134.9677 0001529 109.1040 251.0118 15.08821107 48848,6917.938,95.439,540.861,538.745,0.0
53532.0,STARLINK-4483,PAYLOAD,2023-07-09 03:29:06,15.08835727,0.0001324,53.2175,129.0183,86.6757,273.4387,-4.1493e-05,-9.48e-06,0.0,0 STARLINK-4483,1 53532U 22101F   23190.14521954 -.00000948  00000-0 -41493-4 0  9998,2 53532  53.2175 129.0183 0001324  86.6757 273.4387 15.08835727 49043,6917.893,95.438,540.674,538.843,0.0
53532.0,STARLINK-4483,PAYLOAD,2023-07-09 19:22:57,15.08837437,0.0001272,53.2174,126.0452,86.8334,273.2803,0.00012073,1.634e-05,0.0,0 STARLINK-4483,1 53532U 22101F   23190.80761390  .00001634  00000-0  12073-3 0  9993,2 53532  53.2174 126.0452 0001272  86.8334 273.2803 15.08837437 49145,6917.888,95.438,540.633,538.873,0.0
53532.0,STARLINK-4483,PAYLOAD,2023-07-10 04:55:15,15.08848195,0.0001343,53.2175,124.2608,86.1464,273.9682,0.00016747,2.379e-05,0.0,0 STARLINK-4483,1 53532U 22101F   23191.20504591  .00002379  00000-0  16747-3 0  9995,2 53532  53.2175 124.2608 0001343  86.1464 273.9682 15.08848195 49207,6917.855,95.437,540.649,538.791,0.0
53532.0,STARLINK-4483,PAYLOAD,2023-07-10 19:13:45,15.08833863,0.0001607,53.2173,121.584,81.5031,278.6144,7.6003e-05,9.22e-06,0.0,0 STARLINK-4483,1 53532U 22101F   23191.80121975  .00000922  00000-0  76003-4 0  9996,2 53532  53.2173 121.5840 0001607  81.5031 278.6144 15.08833863 49295,6917.899,95.438,540.876,538.652,0.0
53532.0,STARLINK-4483,PAYLOAD,2023-07-12 01:26:03,15.08851849,0.0001377,53.2173,115.9339,87.1536,272.9614,8.1095e-05,1.003e-05,0.0,0 STARLINK-4483,1 53532U 22101F   23193.05976676  .00001003  00000-0  81095-4 0  9999,2 53532  53.2173 115.9339 0001377  87.1536 272.9614 15.08851849 49485,6917.844,95.437,540.662,538.757,0.0
53532.0,STARLINK-4483,PAYLOAD,2023-07-13 01:16:51,15.08840916,0.0001453,53.2179,111.4705,102.9735,257.1419,1.4897e-05,-5.1e-07,0.0,0 STARLINK-4483,1 53532U 22101F   23194.05337347 -.00000051  00000-0  14897-4 0  9995,2 53532  53.2179 111.4705 0001453 102.9735 257.1419 15.08840916 49639,6917.878,95.437,540.748,538.737,0.0
53532.0,STARLINK-4483,PAYLOAD,2023-07-13 21:56:53,15.0883411,0.000136,53.2181,107.6089,96.0031,264.1116,-0.00012001,-2.197e-05,0.0,0 STARLINK-4483,1 53532U 22101F   23194.91450582 -.00002197  00000-0 -12001-3 0  9995,2 53532  53.2181 107.6089 0001360  96.0031 264.1116 15.08834110 49768,6917.898,95.438,540.704,538.823,0.0
53532.0,STARLINK-4483,PAYLOAD,2023-07-14 18:36:53,15.08824684,0.0001545,53.218,103.7436,110.9669,249.1489,0.00025654,3.796e-05,0.0,0 STARLINK-4483,1 53532U 22101F   23195.77561847  .00003796  00000-0  25654-3 0  9999,2 53532  53.2180 103.7436 0001545 110.9669 249.1489 15.08824684 49893,6917.927,95.439,540.861,538.723,0.0
53532.0,STARLINK-4483,PAYLOAD,2023-07-15 02:33:48,15.08847862,0.0001441,53.2188,102.259,101.0645,259.0509,0.00015133,2.122e-05,0.0,0 STARLINK-4483,1 53532U 22101F   23196.10681061  .00002122  00000-0  15133-3 0  9991,2 53532  53.2188 102.2590 0001441 101.0645 259.0509 15.08847862 49948,6917.856,95.437,540.718,538.724,0.0
53532.0,STARLINK-4483,PAYLOAD,2023-07-16 03:59:59,15.08835711,0.0001234,53.218,97.4968,80.986,279.1271,4.9838e-05,5.05e-06,0.0,0 STARLINK-4483,1 53532U 22101F   23197.16666533  .00000505  00000-0  49838-4 0  9998,2 53532  53.2180  97.4968 0001234  80.9860 279.1271 15.08835711 50107,6917.893,95.438,540.612,538.905,0.0
53532.0,STARLINK-4483,PAYLOAD,2023-07-17 10:12:18,15.08851557,0.00012,53.2182,91.8468,90.3271,269.7859,-2.5437e-06,-3.28e-06,0.0,0 STARLINK-4483,1 53532U 22101F   23198.42521647 -.00000328  00000-0 -25437-5 0  9999,2 53532  53.2182  91.8468 0001200  90.3271 269.7859 15.08851557 50299,6917.845,95.437,540.54,538.88,0.0
53532.0,STARLINK-4483,PAYLOAD,2023-07-19 01:56:57,15.08843549,0.0001283,53.2182,84.4137,87.0459,273.068,2.8722e-05,1.69e-06,0.0,0 STARLINK-4483,1 53532U 22101F   23200.08122087  .00000169  00000-0  28722-4 0  9990,2 53532  53.2182  84.4137 0001283  87.0459 273.0680 15.08843549 50542,6917.87,95.437,540.622,538.847,0.0
53532.0,STARLINK-4483,PAYLOAD,2023-07-20 16:06:13,15.08831472,0.0001199,53.2182,77.2765,102.2923,257.8203,0.00014589,2.034e-05,0.0,0 STARLINK-4483,1 53532U 22101F   23201.67098530  .00002034  00000-0  14589-3 0  9999,2 53532  53.2182  77.2765 0001199 102.2923 257.8203 15.08831472 50780,6917.906,95.438,540.601,538.942,0.0
53532.0,STARLINK-4483,PAYLOAD,2023-07-21 01:38:31,15.08840655,0.0001284,53.2183,75.4919,104.0194,256.0941,0.00020582,2.989e-05,0.0,0 STARLINK-4483,1 53532U 22101F   23202.06842038  .00002989  00000-0  20582-3 0  9992,2 53532  53.2183  75.4919 0001284 104.0194 256.0941 15.08840655 50847,6917.878,95.438,540.632,538.855,0.0
53532.0,STARLINK-4483,PAYLOAD,2023-07-21 15:57:00,15.08835697,0.0001267,53.2184,72.8156,104.1957,255.9176,0.00010371,1.363e-05,0.0,0 STARLINK-4483,1 53532U 22101F   23202.66458843  .00001363  00000-0  10371-3 0  9995,2 53532  53.2184  72.8156 0001267 104.1957 255.9176 15.08835697 50939,6917.894,95.438,540.635,538.882,0.0
53532.0,STARLINK-4483,PAYLOAD,2023-07-24 13:53:59,15.08833889,0.0001141,53.2187,59.7327,96.4678,263.6444,6.0862e-05,6.81e-06,0.0,0 STARLINK-4483,1 53532U 22101F   23205.57915718  .00000681  00000-0  60862-4 0  9990,2 53532  53.2187  59.7327 0001141  96.4678 263.6444 15.08833889 51374,6917.899,95.438,540.553,538.975,0.0
53532.0,STARLINK-4483,PAYLOAD,2023-07-25 13:44:45,15.0884345,0.0001446,53.2164,55.2704,101.4119,258.7036,2.6691e-05,1.37e-06,0.0,0 STARLINK-4483,1 53532U 22101F   23206.57275382  .00000137  00000-0  26691-4 0  9995,2 53532  53.2164  55.2704 0001446 101.4119 258.7036 15.08843450 51528,6917.87,95.437,540.735,538.735,0.0
53532.0,STARLINK-4483,PAYLOAD,2023-07-25 23:17:04,15.08840661,0.0001303,53.2163,53.4861,92.8781,267.2361,0.00012533,1.707e-05,0.0,0 STARLINK-4483,1 53532U 22101F   23206.97019493  .00001707  00000-0  12533-3 0  9991,2 53532  53.2163  53.4861 0001303  92.8781 267.2361 15.08840661 51584,6917.878,95.438,540.645,538.842,0.0
53532.0,STARLINK-4483,PAYLOAD,2023-07-26 19:57:04,15.0885039,0.000108,53.2173,49.6214,89.6946,270.417,0.00011911,1.609e-05,0.0,0 STARLINK-4483,1 53532U 22101F   23207.83130629  .00001609  00000-0  11911-3 0  9992,2 53532  53.2173  49.6214 0001080  89.6946 270.4170 15.08850390 51712,6917.849,95.437,540.461,538.967,0.0
53532.0,STARLINK-4483,PAYLOAD,2023-07-27 00:43:13,15.0885384,0.0001283,53.2185,48.7313,75.556,284.5574,0.00022806,3.345e-05,0.0,0 STARLINK-4483,1 53532U 22101F   23208.03002157  .00003345  00000-0  22806-3 0  9993,2 53532  53.2185  48.7313 0001283  75.5560 284.5574 15.08853840 51746,6917.838,95.437,540.591,538.816,0.0
53532.0,STARLINK-4483,PAYLOAD,2023-07-27 07:04:48,15.08829207,0.0001172,53.2185,47.5421,73.5046,286.6075,-4.1616e-05,-9.5e-06,0.0,0 STARLINK-4483,1 53532U 22101F   23208.29500330 -.00000950  00000-0 -41616-4 0  9999,2 53532  53.2185  47.5421 0001172  73.5046 286.6075 15.08829207 51780,6917.913,95.438,540.589,538.968,0.0
53532.0,STARLINK-4483,PAYLOAD,2023-07-27 13:26:20,15.08832687,0.000132,53.2187,46.3511,77.4996,282.6143,-5.7953e-05,-1.21e-05,0.0,0 STARLINK-4483,1 53532U 22101F   23208.55996305 -.00001210  00000-0 -57953-4 0  9990,2 53532  53.2187  46.3511 0001320  77.4996 282.6143 15.08832687 51824,6917.903,95.438,540.681,538.855,0.0
53532.0,STARLINK-4483,PAYLOAD,2023-07-27 19:47:52,15.08834552,0.0001004,53.217,45.162,66.3346,293.7752,-0.00010125,-1.899e-05,0.0,0 STARLINK-4483,1 53532U 22101F   23208.82491749 -.00001899  00000-0 -10125-3 0  9994,2 53532  53.2170  45.1620 0001004  66.3346 293.7752 15.08834552 51865,6917.897,95.438,540.457,539.067,0.0
53532.0,STARLINK-4483,PAYLOAD,2023-07-28 13:17:07,15.08838078,0.0001538,53.2154,41.8909,76.9576,283.1587,4.9914e-05,5.06e-06,0.0,0 STARLINK-4483,1 53532U 22101F   23209.55355747  .00000506  00000-0  49914-4 0  9993,2 53532  53.2154  41.8909 0001538  76.9576 283.1587 15.08838078 51972,6917.886,95.438,540.815,538.687,0.0
53532.0,STARLINK-4483,PAYLOAD,2023-07-29 00:24:48,15.08850928,0.0001357,53.2166,39.8104,71.8924,288.2216,0.00012625,1.722e-05,0.0,0 STARLINK-4483,1 53532U 22101F   23210.01723100  .00001722  00000-0  12625-3 0  9997,2 53532  53.2166  39.8104 0001357  71.8924 288.2216 15.08850928 52041,6917.847,95.437,540.651,538.773,0.0
53532.0,STARLINK-4483,PAYLOAD,2023-07-29 05:10:58,15.08840477,1.92e-05,53.2184,38.9193,163.5613,196.5386,1.7451e-06,-2.6e-06,0.0,0 STARLINK-4483,1 53532U 22101F   23210.21595423 -.00000260  00000-0  17451-5 0  9995,2 53532  53.2184  38.9193 0000192 163.5613 196.5386 15.08840477 52079,6917.879,95.438,539.877,539.611,0.0
53532.0,STARLINK-4483,PAYLOAD,2023-07-29 19:29:26,15.08850463,0.0001214,53.2183,36.243,71.5857,288.5267,0.00031467,4.725e-05,0.0,0 STARLINK-4483,1 53532U 22101F   23210.81211334  .00004725  00000-0  31467-3 0  9997,2 53532  53.2183  36.2430 0001214  71.5857 288.5267 15.08850463 52163,6917.848,95.437,540.553,538.874,0.0
53532.0,STARLINK-4483,PAYLOAD,2023-07-30 11:23:18,15.08843099,0.0001182,53.2179,33.2699,68.051,292.0608,-4.3682e-05,-9.83e-06,0.0,0 STARLINK-4483,1 53532U 22101F   23211.47451432 -.00000983  00000-0 -43682-4 0  9992,2 53532  53.2179  33.2699 0001182  68.0510 292.0608 15.08843099 52260,6917.871,95.437,540.554,538.918,0.0
